{
  "type": "FeatureCollection",
  "features": [
    {
      "type": "Feature",
      "properties": {
        "norad_id": 34816,
        "name": "COSMOS 2251 DEB",
        "group": "cosmos-2251-debris",
        "lat": 72.30226086379545,
        "lon": -119.96246412425813,
        "alt_km": 1024.7078013114178,
        "timestamp": "2025-12-23T20:42:37.471247+00:00",
        "meta_object_name": "COSMOS 2251 DEB",
        "meta_object_id": "1993-036ABF",
        "meta_epoch": "2025-12-23T03:24:36.727200",
        "meta_mean_motion": 13.58351314,
        "meta_eccentricity": 0.03730444,
        "meta_inclination": 73.8873,
        "meta_ra_of_asc_node": 126.1492,
        "meta_arg_of_pericenter": 188.8277,
        "meta_mean_anomaly": 349.1718,
        "meta_ephemeris_type": 0,
        "meta_classification_type": "U",
        "meta_norad_cat_id": 34816,
        "meta_element_set_no": 999,
        "meta_rev_at_epoch": 82924,
        "meta_bstar": 0.0012758256,
        "meta_mean_motion_dot": 1.439e-05,
        "meta_mean_motion_ddot": 0,
        "tle_line1": "1 34816U 93036ABF 25357.14209175  .00001439  00000+0  12758-2 0  9995",
        "tle_line2": "2 34816  73.8873 126.1492 0373044 188.8277 349.1718 13.58351314829249"
      },
      "geometry": {
        "type": "Point",
        "coordinates": [
          -119.96246412425813,
          72.30226086379545
        ]
      }
    },
    {
      "type": "Feature",
      "properties": {
        "norad_id": 34818,
        "name": "COSMOS 2251 DEB",
        "group": "cosmos-2251-debris",
        "lat": -26.857955668208543,
        "lon": -91.84659418347846,
        "alt_km": 757.0893404588942,
        "timestamp": "2025-12-23T20:42:37.471257+00:00",
        "meta_object_name": "COSMOS 2251 DEB",
        "meta_object_id": "1993-036ABH",
        "meta_epoch": "2025-12-22T05:26:11.246784",
        "meta_mean_motion": 14.36978109,
        "meta_eccentricity": 0.00245976,
        "meta_inclination": 74.0363,
        "meta_ra_of_asc_node": 279.4958,
        "meta_arg_of_pericenter": 353.0026,
        "meta_mean_anomaly": 157.1903,
        "meta_ephemeris_type": 0,
        "meta_classification_type": "U",
        "meta_norad_cat_id": 34818,
        "meta_element_set_no": 999,
        "meta_rev_at_epoch": 87506,
        "meta_bstar": 0.00018981942,
        "meta_mean_motion_dot": 5.38e-06,
        "meta_mean_motion_ddot": 0,
        "tle_line1": "1 34818U 93036ABH 25356.22651906  .00000538  00000+0  18982-3 0  9993",
        "tle_line2": "2 34818  74.0363 279.4958 0024597 353.0026 157.1903 14.36978109875069"
      },
      "geometry": {
        "type": "Point",
        "coordinates": [
          -91.84659418347846,
          -26.857955668208543
        ]
      }
    },
    {
      "type": "Feature",
      "properties": {
        "norad_id": 34819,
        "name": "COSMOS 2251 DEB",
        "group": "cosmos-2251-debris",
        "lat": -67.05255928872785,
        "lon": -16.12751602323126,
        "alt_km": 678.1653207220352,
        "timestamp": "2025-12-23T20:42:37.471267+00:00",
        "meta_object_name": "COSMOS 2251 DEB",
        "meta_object_id": "1993-036ABJ",
        "meta_epoch": "2025-12-23T02:19:29.502336",
        "meta_mean_motion": 14.64114974,
        "meta_eccentricity": 0.0015354,
        "meta_inclination": 74.0192,
        "meta_ra_of_asc_node": 122.7469,
        "meta_arg_of_pericenter": 217.4398,
        "meta_mean_anomaly": 319.6,
        "meta_ephemeris_type": 0,
        "meta_classification_type": "U",
        "meta_norad_cat_id": 34819,
        "meta_element_set_no": 999,
        "meta_rev_at_epoch": 88380,
        "meta_bstar": 0.001695851,
        "meta_mean_motion_dot": 8.907e-05,
        "meta_mean_motion_ddot": 0,
        "tle_line1": "1 34819U 93036ABJ 25357.09686924  .00008907  00000+0  16959-2 0  9997",
        "tle_line2": "2 34819  74.0192 122.7469 0015354 217.4398 319.6000 14.64114974883800"
      },
      "geometry": {
        "type": "Point",
        "coordinates": [
          -16.12751602323126,
          -67.05255928872785
        ]
      }
    },
    {
      "type": "Feature",
      "properties": {
        "norad_id": 34823,
        "name": "COSMOS 2251 DEB",
        "group": "cosmos-2251-debris",
        "lat": -57.96758230928851,
        "lon": 54.0074600621137,
        "alt_km": 792.4499736097359,
        "timestamp": "2025-12-23T20:42:37.471277+00:00",
        "meta_object_name": "COSMOS 2251 DEB",
        "meta_object_id": "1993-036ABN",
        "meta_epoch": "2025-12-22T23:32:59.618976",
        "meta_mean_motion": 14.54990022,
        "meta_eccentricity": 0.01539908,
        "meta_inclination": 74.0418,
        "meta_ra_of_asc_node": 82.8922,
        "meta_arg_of_pericenter": 165.1039,
        "meta_mean_anomaly": 195.4739,
        "meta_ephemeris_type": 0,
        "meta_classification_type": "U",
        "meta_norad_cat_id": 34823,
        "meta_element_set_no": 999,
        "meta_rev_at_epoch": 88530,
        "meta_bstar": 0.00056765995,
        "meta_mean_motion_dot": 2.835e-05,
        "meta_mean_motion_ddot": 0,
        "tle_line1": "1 34823U 93036ABN 25356.98124559  .00002835  00000+0  56766-3 0  9995",
        "tle_line2": "2 34823  74.0418  82.8922 0153990 165.1039 195.4739 14.54990022885307"
      },
      "geometry": {
        "type": "Point",
        "coordinates": [
          54.0074600621137,
          -57.96758230928851
        ]
      }
    },
    {
      "type": "Feature",
      "properties": {
        "norad_id": 34845,
        "name": "COSMOS 2251 DEB",
        "group": "cosmos-2251-debris",
        "lat": -71.81050168484508,
        "lon": 8.26405731964067,
        "alt_km": 731.533886726299,
        "timestamp": "2025-12-23T20:42:37.471288+00:00",
        "meta_object_name": "COSMOS 2251 DEB",
        "meta_object_id": "1993-036ABP",
        "meta_epoch": "2025-12-19T17:31:51.884832",
        "meta_mean_motion": 14.45872035,
        "meta_eccentricity": 0.00225932,
        "meta_inclination": 74.0244,
        "meta_ra_of_asc_node": 135.3011,
        "meta_arg_of_pericenter": 295.1391,
        "meta_mean_anomaly": 64.7423,
        "meta_ephemeris_type": 0,
        "meta_classification_type": "U",
        "meta_norad_cat_id": 34845,
        "meta_element_set_no": 999,
        "meta_rev_at_epoch": 87567,
        "meta_bstar": 0.00020260782,
        "meta_mean_motion_dot": 6.95e-06,
        "meta_mean_motion_ddot": 0,
        "tle_line1": "1 34845U 93036ABP 25353.73046163  .00000695  00000+0  20261-3 0  9996",
        "tle_line2": "2 34845  74.0244 135.3011 0022593 295.1391  64.7423 14.45872035875670"
      },
      "geometry": {
        "type": "Point",
        "coordinates": [
          8.26405731964067,
          -71.81050168484508
        ]
      }
    },
    {
      "type": "Feature",
      "properties": {
        "norad_id": 34846,
        "name": "COSMOS 2251 DEB",
        "group": "cosmos-2251-debris",
        "lat": -68.45742151414629,
        "lon": 107.47633831022713,
        "alt_km": 729.6076622610735,
        "timestamp": "2025-12-23T20:42:37.471297+00:00",
        "meta_object_name": "COSMOS 2251 DEB",
        "meta_object_id": "1993-036ABQ",
        "meta_epoch": "2025-12-22T20:18:23.821920",
        "meta_mean_motion": 14.47267478,
        "meta_eccentricity": 0.0026216,
        "meta_inclination": 74.0301,
        "meta_ra_of_asc_node": 242.8755,
        "meta_arg_of_pericenter": 308.0511,
        "meta_mean_anomaly": 51.8282,
        "meta_ephemeris_type": 0,
        "meta_classification_type": "U",
        "meta_norad_cat_id": 34846,
        "meta_element_set_no": 999,
        "meta_rev_at_epoch": 87550,
        "meta_bstar": 0.00072003,
        "meta_mean_motion_dot": 2.618e-05,
        "meta_mean_motion_ddot": 0,
        "tle_line1": "1 34846U 93036ABQ 25356.84610905  .00002618  00000+0  72003-3 0  9991",
        "tle_line2": "2 34846  74.0301 242.8755 0026216 308.0511  51.8282 14.47267478875501"
      },
      "geometry": {
        "type": "Point",
        "coordinates": [
          107.47633831022713,
          -68.45742151414629
        ]
      }
    },
    {
      "type": "Feature",
      "properties": {
        "norad_id": 34852,
        "name": "COSMOS 2251 DEB",
        "group": "cosmos-2251-debris",
        "lat": -73.91130283379535,
        "lon": 159.43927056661724,
        "alt_km": 771.5450900548813,
        "timestamp": "2025-12-23T20:42:37.471308+00:00",
        "meta_object_name": "COSMOS 2251 DEB",
        "meta_object_id": "1993-036ABW",
        "meta_epoch": "2025-12-22T10:01:54.526080",
        "meta_mean_motion": 14.37012127,
        "meta_eccentricity": 0.00166159,
        "meta_inclination": 74.0324,
        "meta_ra_of_asc_node": 245.1729,
        "meta_arg_of_pericenter": 346.342,
        "meta_mean_anomaly": 13.7281,
        "meta_ephemeris_type": 0,
        "meta_classification_type": "U",
        "meta_norad_cat_id": 34852,
        "meta_element_set_no": 999,
        "meta_rev_at_epoch": 87673,
        "meta_bstar": 0.00010888477,
        "meta_mean_motion_dot": 2.97e-06,
        "meta_mean_motion_ddot": 0,
        "tle_line1": "1 34852U 93036ABW 25356.41799220  .00000297  00000+0  10888-3 0  9993",
        "tle_line2": "2 34852  74.0324 245.1729 0016615 346.3420  13.7281 14.37012127876736"
      },
      "geometry": {
        "type": "Point",
        "coordinates": [
          159.43927056661724,
          -73.91130283379535
        ]
      }
    }
  ]
}